ONEWEB-0029             
1 45445U 20020X   25276.65984626  .00000536  00000+0  14764-2 0  9991
2 45445  87.8804  72.1533 0001581  92.2063 267.9246 13.11415370269039
ONEWEB-0068             
1 45446U 20020Y   25277.86434874  .00000047  00000+0  97935-4 0  9991
2 45446  87.8807  71.9015 0001482  91.7336 268.3962 13.11417931269138
ONEWEB-0046             
1 45447U 20020Z   25277.85600333 -.00000326  00000+0 -95627-3 0  9993
2 45447  87.8804  71.9122 0001663  84.2387 275.8931 13.11418112269141
ONEWEB-0063             
1 45448U 20020AA  25276.66408337  .00000542  00000+0  14944-2 0  9992
2 45448  87.8799  72.1485 0001901  89.2418 270.8928 13.11413991269078
ONEWEB-0019             
1 45449U 20020AB  25277.47705817 -.00000531  00000+0 -15352-2 0  9990
2 45449  87.8805  72.0023 0001660  91.3029 268.8289 13.11422201269024
ONEWEB-0094             
1 45450U 20020AC  25277.67773367 -.00000009  00000+0 -57064-4 0  9997
2 45450  87.9086  56.6453 0001589  96.4547 263.6766 13.17652141272665
ONEWEB-0087             
1 45451U 20020AD  25277.81857042  .00000257  00000+0  68836-3 0  9998
2 45451  87.8817  71.8695 0001348  91.4810 268.6472 13.11413600269119
ONEWEB-0082             
1 45452U 20020AE  25277.43383852  .00000392  00000+0  10701-2 0  9997
2 45452  87.8816  71.9717 0001518  96.7849 263.3452 13.11415467269151
ONEWEB-0050             
1 45453U 20020AF  25278.25001156  .00015419  00000+0  16340-2 0  9994
2 45453  88.5375 268.5749 0004202 128.7906 295.5121 14.89037541  5711
ONEWEB-0034             
1 45454U 20020AG  25277.83650534 -.00000482  00000+0 -13956-2 0  9994
2 45454  87.8802  71.9109 0001636  94.3063 265.8252 13.11414653269124
ONEWEB-0060             
1 45455U 20020AH  25278.18918315  .00000561  00000+0  15461-2 0  9997
2 45455  87.8798  71.8654 0000446  94.6525 265.4654 13.11415949269128
ONEWEB-0086             
1 45456U 20020AJ  25277.71019662  .00000114  00000+0  28635-3 0  9995
2 45456  87.8805  71.9333 0001252 118.9030 241.2223 13.11418410269120
ONEWEB-0088             
1 45457U 20020AK  25277.68814583 -.00000506  00000+0 -14644-2 0  9998
2 45457  87.8814  71.8863 0001637  89.2018 270.9298 13.11414826269051
ONEWEB-0102             
1 47258U 20100A   25278.04522256  .00000060  00000+0  13134-3 0  9999
2 47258  87.8947  41.3704 0001839 102.7695 257.3639 13.12440505231265
ONEWEB-0109             
1 47259U 20100B   25278.05333764 -.00000213  00000+0 -62663-3 0  9998
2 47259  87.8946  41.3369 0001744 103.0610 257.0714 13.12441844231097
ONEWEB-0110             
1 47260U 20100C   25278.07928698 -.00000233  00000+0 -68251-3 0  9999
2 47260  87.8938  41.3154 0001519 106.2651 253.8645 13.12443864231262
ONEWEB-0111             
1 47261U 20100D   25277.80516705  .00000367  00000+0  98596-3 0  9993
2 47261  87.8947  41.3878 0001753  99.3193 260.8134 13.12441114231064
ONEWEB-0114             
1 47262U 20100E   25278.06468935 -.00000405  00000+0 -11606-2 0  9995
2 47262  87.8947  41.3301 0002024 101.9597 258.1758 13.12443037231053
ONEWEB-0117             
1 47263U 20100F   25277.59915639 -.00000273  00000+0 -79488-3 0  9997
2 47263  87.8944  41.4204 0001671  99.4382 260.6935 13.12442705231005
ONEWEB-0118             
1 47264U 20100G   25277.63160669  .00000285  00000+0  75562-3 0  9998
2 47264  87.8940  41.4131 0002055  94.9531 265.1832 13.12445662231207
ONEWEB-0119             
1 47265U 20100H   25278.04036557  .00000211  00000+0  55084-3 0  9999
2 47265  87.8943  41.3691 0001690 101.0315 259.1003 13.12441548231230
ONEWEB-0120             
1 47266U 20100J   25278.06320584 -.00000424  00000+0 -12151-2 0  9993
2 47266  87.8949  41.3666 0001812 101.5042 258.6290 13.12442668231266
ONEWEB-0121             
1 47267U 20100K   25278.05172553 -.00000168  00000+0 -50154-3 0  9995
2 47267  87.8944  41.3347 0001582 102.3000 257.8305 13.12442292231176
ONEWEB-0122             
1 47268U 20100L   25278.04670531 -.00000007  00000+0 -54489-4 0  9992
2 47268  87.8944  41.3385 0001736 105.0800 255.0520 13.12440447231087
ONEWEB-0123             
1 47269U 20100M   25277.81327656  .00000035  00000+0  61287-4 0  9997
2 47269  87.8942  41.4125 0001783  96.6972 263.4359 13.12440680231190
ONEWEB-0124             
1 47270U 20100N   25277.80192419  .00000385  00000+0  10348-2 0  9993
2 47270  87.8945  41.4178 0001554  96.6265 263.5040 13.12441315231075
ONEWEB-0125             
1 47271U 20100P   25278.08415400 -.00000061  00000+0 -20445-3 0  9996
2 47271  87.8941  41.3240 0001726  89.9538 270.1789 13.12443269231175
ONEWEB-0126             
1 47272U 20100Q   25277.80043948  .00000405  00000+0  10903-2 0  9997
2 47272  87.8954  41.4034 0001766  98.9212 261.2117 13.12443527231202
ONEWEB-0127             
1 47273U 20100R   25277.61375277 -.00000247  00000+0 -72113-3 0  9998
2 47273  87.8944  41.4518 0001785 103.0476 257.0852 13.12444107231204
ONEWEB-0128             
1 47274U 20100S   25277.78894186  .00000312  00000+0  83168-3 0  9995
2 47274  87.8932  41.4395 0001649 107.6972 252.4337 13.12442902231247
ONEWEB-0129             
1 47275U 20100T   25278.07280116 -.00000389  00000+0 -11161-2 0  9990
2 47275  87.8946  41.3295 0002817 111.4775 248.6654 13.12443573231214
ONEWEB-0130             
1 47276U 20100U   25277.79543354  .00000395  00000+0  10632-2 0  9992
2 47276  87.8940  41.3811 0001757 103.4936 256.6389 13.12441372231146
ONEWEB-0131             
1 47277U 20100V   25277.63971483  .00000512  00000+0  13891-2 0  9995
2 47277  87.8940  41.4418 0001685 101.1963 258.9355 13.12442810231164
ONEWEB-0132             
1 47278U 20100W   25277.82138801 -.00000132  00000+0 -40162-3 0  9998
2 47278  87.8946  41.4076 0001685 100.5774 259.5544 13.12442077231087
ONEWEB-0133             
1 47279U 20100X   25278.06617014 -.00000394  00000+0 -11293-2 0  9996
2 47279  87.8934  41.3259 0001593 103.1587 256.9719 13.12441876231278
ONEWEB-0134             
1 47280U 20100Y   25277.80678502  .00000293  00000+0  77793-3 0  9992
2 47280  87.8944  41.3672 0001752 108.6519 251.4799 13.12440889231217
ONEWEB-0135             
1 47281U 20100Z   25278.08253983 -.00000186  00000+0 -55224-3 0  9994
2 47281  87.8941  41.3525 0001661 113.6769 246.4534 13.12442738231276
ONEWEB-0136             
1 47282U 20100AA  25277.79706463  .00000416  00000+0  11200-2 0  9997
2 47282  87.8942  41.3780 0001870 112.8847 247.2479 13.12442213231164
ONEWEB-0137             
1 47283U 20100AB  25278.05982439 -.00000372  00000+0 -10701-2 0  9995
2 47283  87.8947  41.3319 0001813  95.7652 264.3683 13.12442526231106
ONEWEB-0138             
1 47284U 20100AC  25278.03873446  .00000272  00000+0  72143-3 0  9997
2 47284  87.8942  41.3455 0001760 106.0002 254.1320 13.12440419231181
ONEWEB-0139             
1 47285U 20100AD  25278.07781580 -.00000179  00000+0 -53282-3 0  9990
2 47285  87.8939  41.3282 0001671 100.6051 259.5266 13.12444741231260
ONEWEB-0140             
1 47286U 20100AE  25277.57483155  .00000479  00000+0  12951-2 0  9990
2 47286  87.8945  41.4134 0001746 103.3933 256.7390 13.12441944231165
ONEWEB-0141             
1 47287U 20100AF  25278.07752725 -.00000279  00000+0 -81017-3 0  9999
2 47287  87.8933  41.3271 0002005  93.9103 266.2255 13.12442312231218
ONEWEB-0142             
1 47288U 20100AG  25278.06645705 -.00000447  00000+0 -12789-2 0  9994
2 47288  87.8945  41.3473 0002080  97.3681 262.7684 13.12443651231201
ONEWEB-0143             
1 47289U 20100AH  25278.07603844 -.00000287  00000+0 -83371-3 0  9992
2 47289  87.8941  41.3419 0001684  99.1635 260.9684 13.12442695231180
ONEWEB-0144             
1 47290U 20100AJ  25278.04847259 -.00000052  00000+0 -17896-3 0  9990
2 47290  87.8939  41.3208 0001994 103.5690 256.5661 13.12440952231102
ONEWEB-0145             
1 47291U 20100AK  25277.63808818  .00000512  00000+0  13884-2 0  9994
2 47291  87.8941  41.4354 0001797 100.9915 259.1416 13.12442969231243
ONEWEB-0146             
1 47292U 20100AL  25277.63484852  .00000394  00000+0  10608-2 0  9992
2 47292  87.8938  41.4228 0001399  93.5481 266.5807 13.12444009231156
ONEWEB-0147             
1 47293U 20100AM  25277.60077378 -.00000258  00000+0 -75371-3 0  9991
2 47293  87.8946  41.4078 0001676 109.6354 250.4956 13.12442447231044
ONEWEB-0115             
1 48042U 21025A   25278.20929969 -.00000274  00000+0 -78561-3 0  9992
2 48042  87.9055  10.8749 0001759 100.0234 260.1094 13.13469845220128
ONEWEB-0152             
1 48043U 21025B   25278.22283848 -.00000203  00000+0 -59073-3 0  9993
2 48043  87.9051  10.8859 0001669 101.7243 258.4073 13.13469558220088
ONEWEB-0153             
1 48044U 21025C   25278.20083428 -.00000164  00000+0 -48453-3 0  9990
2 48044  87.9059  10.8909 0001849 100.4390 259.6947 13.13468320220070
ONEWEB-0154             
1 48045U 21025D   25278.19745275 -.00000006  00000+0 -52222-4 0  9999
2 48045  87.9060  10.8882 0001810 103.6572 256.4759 13.13470523220038
ONEWEB-0116             
1 48046U 21025E   25276.56048318  .00000382  00000+0  10123-2 0  9990
2 48046  87.9055  11.1953 0001692 100.1012 260.0308 13.13469618219969
ONEWEB-0150             
1 48047U 21025F   25278.21268705 -.00000218  00000+0 -63146-3 0  9993
2 48047  87.9056  10.8626 0001895  95.5861 264.5484 13.13469140220076
ONEWEB-0107             
1 48048U 21025G   25278.21438605 -.00000166  00000+0 -48915-3 0  9991
2 48048  87.9056  10.8597 0002110 104.0211 256.1152 13.13470577220053
ONEWEB-0101             
1 48049U 21025H   25278.17715633 -.00000396  00000+0 -11195-2 0  9990
2 48049  87.9051  10.9055 0001885 106.2974 253.8362 13.13462758220023
ONEWEB-0113             
1 48050U 21025J   25278.22015110 -.00000177  00000+0 -51524-3 0  9999
2 48050  87.9052  10.8341 0001663  93.7188 266.4131 13.13979462220124
ONEWEB-0112             
1 48051U 21025K   25277.99093303 -.00000203  00000+0 -59046-3 0  9990
2 48051  87.9050  10.9007 0001865  98.6351 261.4990 13.13469810220098
